start=new Date('2022-12-11T00:00:00.000Z').valueOf();
sats=[{"INCLINATION":"53.0547","DECAY_DATE":null,"GP_ID":"219973356","BSTAR":"0.00004335200000","CLASSIFICATION_TYPE":"U","LAUNCH_DATE":"2020-10-06","SEMIMAJOR_AXIS":"6925.355","TIME_SYSTEM":"UTC","MEAN_MOTION":"15.06397993","RA_OF_ASC_NODE":"76.5787","REF_FRAME":"TEME","REV_AT_EPOCH":"12116","MEAN_ANOMALY":"269.9123","PERIAPSIS":"546.202","FILE":"3688965","MEAN_MOTION_DOT":"0.00000364","NORAD_CAT_ID":"46541","MEAN_ELEMENT_THEORY":"SGP4","ECCENTRICITY":"0.00014700","PERIOD":"95.592","TLE_LINE1":"1 46541U 20070K   22344.62661981  .00000364  00000-0  43352-4 0  9997","ARG_OF_PERICENTER":"90.2035","TLE_LINE2":"2 46541  53.0547  76.5787 0001470  90.2035 269.9123 15.06397993121162","OBJECT_ID":"2020-070K","SITE":"AFETR","OBJECT_NAME":"STARLINK-1687","EPOCH":"2022-12-10T15:02:19.951584","COUNTRY_CODE":"US","MEAN_MOTION_DDOT":"0.0000000000000","APOAPSIS":"548.238","ELEMENT_SET_NO":"999","RCS_SIZE":"LARGE","OBJECT_TYPE":"PAYLOAD","EPHEMERIS_TYPE":"0","CENTER_NAME":"EARTH"},{"MEAN_ELEMENT_THEORY":"SGP4","FILE":"3688965","NORAD_CAT_ID":"46542","MEAN_MOTION_DOT":"-0.00002117","MEAN_ANOMALY":"322.2625","PERIAPSIS":"545.700","REV_AT_EPOCH":"12088","ARG_OF_PERICENTER":"37.8513","PERIOD":"95.591","TLE_LINE1":"1 46542U 20070L   22344.62844891 -.00002117  00000-0 -12321-3 0  9992","ECCENTRICITY":"0.00021230","CLASSIFICATION_TYPE":"U","BSTAR":"-0.00012321000000","GP_ID":"219974607","DECAY_DATE":null,"INCLINATION":"53.0578","REF_FRAME":"TEME","MEAN_MOTION":"15.06414129","RA_OF_ASC_NODE":"96.5798","TIME_SYSTEM":"UTC","SEMIMAJOR_AXIS":"6925.305","LAUNCH_DATE":"2020-10-06","OBJECT_TYPE":"PAYLOAD","RCS_SIZE":"LARGE","CENTER_NAME":"EARTH","EPHEMERIS_TYPE":"0","OBJECT_NAME":"STARLINK-1692","SITE":"AFETR","OBJECT_ID":"2020-070L","TLE_LINE2":"2 46542  53.0578  96.5798 0002123  37.8513 322.2625 15.06414129120884","ELEMENT_SET_NO":"999","APOAPSIS":"548.640","MEAN_MOTION_DDOT":"0.0000000000000","COUNTRY_CODE":"US","EPOCH":"2022-12-10T15:04:57.985824"},{"REF_FRAME":"TEME","RA_OF_ASC_NODE":"96.6406","MEAN_MOTION":"15.06401375","TIME_SYSTEM":"UTC","SEMIMAJOR_AXIS":"6925.344","LAUNCH_DATE":"2020-10-06","CLASSIFICATION_TYPE":"U","BSTAR":"-0.00005560300000","GP_ID":"219974857","DECAY_DATE":null,"INCLINATION":"53.0562","ARG_OF_PERICENTER":"59.0458","TLE_LINE1":"1 46543U 20070M   22344.61372128 -.00001110  00000-0 -55603-4 0  9994","PERIOD":"95.592","ECCENTRICITY":"0.00015640","MEAN_ELEMENT_THEORY":"SGP4","FILE":"3688965","MEAN_MOTION_DOT":"-0.00001110","NORAD_CAT_ID":"46543","PERIAPSIS":"546.126","MEAN_ANOMALY":"301.0685","REV_AT_EPOCH":"12088","ELEMENT_SET_NO":"999","APOAPSIS":"548.292","MEAN_MOTION_DDOT":"0.0000000000000","COUNTRY_CODE":"US","EPOCH":"2022-12-10T14:43:45.518592","OBJECT_NAME":"STARLINK-1693","SITE":"AFETR","OBJECT_ID":"2020-070M","TLE_LINE2":"2 46543  53.0562  96.6406 0001564  59.0458 301.0685 15.06401375120887","CENTER_NAME":"EARTH","EPHEMERIS_TYPE":"0","OBJECT_TYPE":"PAYLOAD","RCS_SIZE":"LARGE"},{"ECCENTRICITY":"0.00014710","ARG_OF_PERICENTER":"68.9356","TLE_LINE1":"1 46544U 20070N   22344.80861299  .00001087  00000-0  91819-4 0  9998","PERIOD":"95.592","PERIAPSIS":"546.171","MEAN_ANOMALY":"291.1791","REV_AT_EPOCH":"12112","FILE":"3688965","MEAN_MOTION_DOT":"0.00001087","NORAD_CAT_ID":"46544","MEAN_ELEMENT_THEORY":"SGP4","TIME_SYSTEM":"UTC","LAUNCH_DATE":"2020-10-06","SEMIMAJOR_AXIS":"6925.325","RA_OF_ASC_NODE":"80.7687","MEAN_MOTION":"15.06407650","REF_FRAME":"TEME","GP_ID":"219973607","BSTAR":"0.00009181900000","CLASSIFICATION_TYPE":"U","INCLINATION":"53.0546","DECAY_DATE":null,"EPHEMERIS_TYPE":"0","CENTER_NAME":"EARTH","RCS_SIZE":"LARGE","OBJECT_TYPE":"PAYLOAD","COUNTRY_CODE":"US","EPOCH":"2022-12-10T19:24:24.162336","ELEMENT_SET_NO":"999","MEAN_MOTION_DDOT":"0.0000000000000","APOAPSIS":"548.209","TLE_LINE2":"2 46544  53.0546  80.7687 0001471  68.9356 291.1791 15.06407650121125","OBJECT_ID":"2020-070N","OBJECT_NAME":"STARLINK-1694","SITE":"AFETR"},{"DECAY_DATE":null,"INCLINATION":"53.0536","BSTAR":"0.00048049000000","CLASSIFICATION_TYPE":"U","GP_ID":"219973857","REF_FRAME":"TEME","MEAN_MOTION":"15.06403141","RA_OF_ASC_NODE":"95.8696","SEMIMAJOR_AXIS":"6925.339","LAUNCH_DATE":"2020-10-06","TIME_SYSTEM":"UTC","MEAN_ELEMENT_THEORY":"SGP4","MEAN_MOTION_DOT":"0.00006883","FILE":"3688965","NORAD_CAT_ID":"46545","REV_AT_EPOCH":"12090","MEAN_ANOMALY":"302.1437","PERIAPSIS":"546.077","PERIOD":"95.592","TLE_LINE1":"1 46545U 20070P   22344.78327884  .00006883  00000-0  48049-3 0  9998","ARG_OF_PERICENTER":"57.9710","ECCENTRICITY":"0.00016270","SITE":"AFETR","OBJECT_NAME":"STARLINK-1696","OBJECT_ID":"2020-070P","TLE_LINE2":"2 46545  53.0536  95.8696 0001627  57.9710 302.1437 15.06403141120903","APOAPSIS":"548.331","MEAN_MOTION_DDOT":"0.0000000000000","ELEMENT_SET_NO":"999","EPOCH":"2022-12-10T18:47:55.291776","COUNTRY_CODE":"US","OBJECT_TYPE":"PAYLOAD","RCS_SIZE":"LARGE","CENTER_NAME":"EARTH","EPHEMERIS_TYPE":"0"},{"MEAN_ELEMENT_THEORY":"SGP4","MEAN_MOTION_DOT":"-0.00001134","FILE":"3688965","NORAD_CAT_ID":"46546","MEAN_ANOMALY":"296.0995","PERIAPSIS":"545.952","REV_AT_EPOCH":"12088","ARG_OF_PERICENTER":"64.0183","TLE_LINE1":"1 46546U 20070Q   22344.63584673 -.00001134  00000-0 -57264-4 0  9990","PERIOD":"95.592","ECCENTRICITY":"0.00018420","BSTAR":"-0.00005726400000","CLASSIFICATION_TYPE":"U","GP_ID":"219974108","DECAY_DATE":null,"INCLINATION":"53.0577","REF_FRAME":"TEME","RA_OF_ASC_NODE":"96.5510","MEAN_MOTION":"15.06395249","TIME_SYSTEM":"UTC","SEMIMAJOR_AXIS":"6925.363","LAUNCH_DATE":"2020-10-06","OBJECT_TYPE":"PAYLOAD","RCS_SIZE":"LARGE","CENTER_NAME":"EARTH","EPHEMERIS_TYPE":"0","SITE":"AFETR","OBJECT_NAME":"STARLINK-1697","OBJECT_ID":"2020-070Q","TLE_LINE2":"2 46546  53.0577  96.5510 0001842  64.0183 296.0995 15.06395249120880","ELEMENT_SET_NO":"999","APOAPSIS":"548.504","MEAN_MOTION_DDOT":"0.0000000000000","COUNTRY_CODE":"US","EPOCH":"2022-12-10T15:15:37.157472"},{"CENTER_NAME":"EARTH","EPHEMERIS_TYPE":"0","OBJECT_TYPE":"PAYLOAD","RCS_SIZE":"LARGE","ELEMENT_SET_NO":"999","MEAN_MOTION_DDOT":"0.0000000000000","APOAPSIS":"548.461","COUNTRY_CODE":"US","EPOCH":"2022-12-10T19:07:46.712352","OBJECT_ID":"2020-070R","SITE":"AFETR","OBJECT_NAME":"STARLINK-1698","TLE_LINE2":"2 46547  53.0574  95.8113 0001802  41.3322 318.7803 15.06400271120914","ARG_OF_PERICENTER":"41.3322","PERIOD":"95.592","TLE_LINE1":"1 46547U 20070R   22344.79706843 -.00001264  00000-0 -65968-4 0  9997","ECCENTRICITY":"0.00018020","MEAN_MOTION_DOT":"-0.00001264","FILE":"3688965","NORAD_CAT_ID":"46547","MEAN_ELEMENT_THEORY":"SGP4","MEAN_ANOMALY":"318.7803","PERIAPSIS":"545.965","REV_AT_EPOCH":"12091","MEAN_MOTION":"15.06400271","RA_OF_ASC_NODE":"95.8113","REF_FRAME":"TEME","TIME_SYSTEM":"UTC","LAUNCH_DATE":"2020-10-06","SEMIMAJOR_AXIS":"6925.348","GP_ID":"219974358","BSTAR":"-0.00006596800000","CLASSIFICATION_TYPE":"U","INCLINATION":"53.0574","DECAY_DATE":null},{"BSTAR":"-0.00004985300000","CLASSIFICATION_TYPE":"U","GP_ID":"219973107","DECAY_DATE":null,"INCLINATION":"53.0556","TIME_SYSTEM":"UTC","SEMIMAJOR_AXIS":"6925.354","LAUNCH_DATE":"2020-10-06","REF_FRAME":"TEME","RA_OF_ASC_NODE":"96.6570","MEAN_MOTION":"15.06398221","PERIAPSIS":"546.084","MEAN_ANOMALY":"306.0763","REV_AT_EPOCH":"12088","MEAN_ELEMENT_THEORY":"SGP4","NORAD_CAT_ID":"46548","FILE":"3688965","MEAN_MOTION_DOT":"-0.00001024","ECCENTRICITY":"0.00016390","ARG_OF_PERICENTER":"54.0378","TLE_LINE1":"1 46548U 20070S   22344.61002045 -.00001024  00000-0 -49853-4 0  9991","PERIOD":"95.592","TLE_LINE2":"2 46548  53.0556  96.6570 0001639  54.0378 306.0763 15.06398221120883","SITE":"AFETR","OBJECT_NAME":"STARLINK-1699","OBJECT_ID":"2020-070S","COUNTRY_CODE":"US","EPOCH":"2022-12-10T14:38:25.766880","ELEMENT_SET_NO":"999","APOAPSIS":"548.354","MEAN_MOTION_DDOT":"0.0000000000000","RCS_SIZE":"LARGE","OBJECT_TYPE":"PAYLOAD","EPHEMERIS_TYPE":"0","CENTER_NAME":"EARTH"},{"MEAN_ELEMENT_THEORY":"SGP4","MEAN_MOTION_DOT":"0.00001527","FILE":"3688965","NORAD_CAT_ID":"46549","REV_AT_EPOCH":"12088","MEAN_ANOMALY":"292.2636","PERIAPSIS":"546.073","TLE_LINE1":"1 46549U 20070T   22344.63951479  .00001527  00000-0  12136-3 0  9997","PERIOD":"95.592","ARG_OF_PERICENTER":"67.8526","ECCENTRICITY":"0.00016350","DECAY_DATE":null,"INCLINATION":"53.0566","BSTAR":"0.00012136000000","CLASSIFICATION_TYPE":"U","GP_ID":"219973357","REF_FRAME":"TEME","RA_OF_ASC_NODE":"96.5279","MEAN_MOTION":"15.06402800","SEMIMAJOR_AXIS":"6925.340","LAUNCH_DATE":"2020-10-06","TIME_SYSTEM":"UTC","OBJECT_TYPE":"PAYLOAD","RCS_SIZE":"LARGE","CENTER_NAME":"EARTH","EPHEMERIS_TYPE":"0","SITE":"AFETR","OBJECT_NAME":"STARLINK-1700","OBJECT_ID":"2020-070T","TLE_LINE2":"2 46549  53.0566  96.5279 0001635  67.8526 292.2636 15.06402800120887","APOAPSIS":"548.337","MEAN_MOTION_DDOT":"0.0000000000000","ELEMENT_SET_NO":"999","EPOCH":"2022-12-10T15:20:54.077856","COUNTRY_CODE":"US"},{"ELEMENT_SET_NO":"999","APOAPSIS":"548.511","MEAN_MOTION_DDOT":"0.0000000000000","COUNTRY_CODE":"US","EPOCH":"2022-12-10T14:59:41.617536","OBJECT_NAME":"STARLINK-1701","SITE":"AFETR","OBJECT_ID":"2020-070U","TLE_LINE2":"2 46550  53.0557  96.5857 0001839  58.1430 301.9738 15.06392293120889","CENTER_NAME":"EARTH","EPHEMERIS_TYPE":"0","OBJECT_TYPE":"PAYLOAD","RCS_SIZE":"LARGE","REF_FRAME":"TEME","RA_OF_ASC_NODE":"96.5857","MEAN_MOTION":"15.06392293","TIME_SYSTEM":"UTC","SEMIMAJOR_AXIS":"6925.372","LAUNCH_DATE":"2020-10-06","BSTAR":"-0.00013888000000","CLASSIFICATION_TYPE":"U","GP_ID":"219974608","DECAY_DATE":null,"INCLINATION":"53.0557","ARG_OF_PERICENTER":"58.1430","PERIOD":"95.593","TLE_LINE1":"1 46550U 20070U   22344.62478724 -.00002349  00000-0 -13888-3 0  9995","ECCENTRICITY":"0.00018390","MEAN_ELEMENT_THEORY":"SGP4","MEAN_MOTION_DOT":"-0.00002349","FILE":"3688965","NORAD_CAT_ID":"46550","PERIAPSIS":"545.964","MEAN_ANOMALY":"301.9738","REV_AT_EPOCH":"12088"}];
